OBJECT_NAME,OBJECT_ID,EPOCH,MEAN_MOTION,ECCENTRICITY,INCLINATION,RA_OF_ASC_NODE,ARG_OF_PERICENTER,MEAN_ANOMALY,EPHEMERIS_TYPE,CLASSIFICATION_TYPE,NORAD_CAT_ID,ELEMENT_SET_NO,REV_AT_EPOCH,BSTAR,MEAN_MOTION_DOT,MEAN_MOTION_DDOT
ASNARO-2,2018-007A,2026-06-16T06:22:50.520000,15.22380680,.00019588,97.3966,174.2074,90.9926,269.1535,0,U,43152,999,46727,.24058183E-3,.5486E-4,0
JILIN-1 07,2018-008E,2026-06-16T07:27:11.878560,15.34710233,.00099307,97.1764,187.2625,67.8505,292.3792,0,U,43159,999,46486,.21620192E-3,.7207E-4,0
JILIN-1 08,2018-008F,2026-06-16T07:26:42.094752,15.33705199,.00080374,97.1797,186.5795,82.4036,277.8120,0,U,43160,999,46481,.16143532E-3,.5189E-4,0
S-NET D,2018-014G,2026-06-16T06:35:01.048416,15.16666614,.00090295,97.5367,72.0710,33.3736,326.8064,0,U,43186,999,45862,.23492555E-3,.4534E-4,0
S-NET B,2018-014H,2026-06-16T06:51:29.060928,15.16636172,.00095265,97.5373,72.0691,28.1461,332.0285,0,U,43187,999,45862,.23520497E-3,.4536E-4,0
S-NET A,2018-014J,2026-06-16T06:33:24.498144,15.16674530,.00094477,97.5383,72.2651,28.8165,331.3588,0,U,43188,999,45862,.23258098E-3,.449E-4,0
S-NET C,2018-014K,2026-06-16T06:57:03.545568,15.16628083,.00105591,97.5399,72.3558,20.6348,339.5309,0,U,43189,999,45717,.23296461E-3,.4493E-4,0
PAZ,2018-020A,2026-06-16T07:35:53.514240,15.19150540,.00016652,97.4453,174.7148,85.6382,274.5043,0,U,43215,999,46087,.81326464E-4,.1641E-4,0
GOES 17,2018-022A,2026-06-16T06:06:00.701856,1.00269809,.00004182,0.9353,85.7290,33.7087,147.0847,0,U,43226,999,3041,0,-.183E-5,0
LKW-4,2018-025A,2026-06-15T23:46:11.316000,15.62187036,.00018291,97.6336,337.7696,296.4642,63.6428,0,U,43236,999,45984,.37601748E-3,.32989E-3,0
ZHUHAI-1 OVS-02,2018-040B,2026-06-16T07:30:34.206624,15.25015782,.00016663,97.0381,184.5944,241.3318,118.7753,0,U,43440,999,45258,.244237E-3,.6032E-4,0
ZHUHAI-1 OHS-02,2018-040C,2026-06-16T07:09:48.047328,15.25870894,.00079673,97.0365,191.5195,223.5440,136.5171,0,U,43441,999,11414,.25820542E-3,.6552E-4,0
GAOFEN-6,2018-048A,2026-06-15T20:26:00.300768,14.76597001,.00116931,97.8709,229.6314,171.3993,188.7420,0,U,43484,999,43319,.5061483E-4,.304E-5,0
LUOJIA-1 01,2018-048B,2026-06-16T07:11:27.691584,14.87281468,.00102417,97.8109,245.5010,120.3013,239.9218,0,U,43485,999,43408,.19524821E-3,.1708E-4,0
PAKTES 1A,2018-056A,2026-06-16T08:05:35.896128,14.99102891,.00221528,98.1301,323.7875,108.7780,251.5847,0,U,43529,999,43179,.79937304E-4,.91E-5,0
PRSS-1,2018-056B,2026-06-16T05:52:14.128608,14.81987478,.00016591,97.7825,235.1403,74.7663,285.3733,0,U,43530,999,42829,.68024439E-4,.488E-5,0
HAIYANG-1C,2018-068A,2026-06-16T08:06:48.950784,14.34178010,.00120994,98.5196,239.6580,96.5122,263.7440,0,U,43609,999,40696,-.2597618E-4,-.116E-5,0
SSTL S1-4,2018-071A,2026-06-16T06:51:28.870848,14.96179812,.00013668,97.5038,38.9389,98.1217,262.0160,0,U,43618,999,42280,.7760356E-5,.33E-6,0
HAIYANG-2B,2018-081A,2026-06-16T07:01:15.537216,13.79306773,.00004615,99.3277,176.0623,4.4999,355.6157,0,U,43655,999,38480,.21134318E-4,-.22E-6,0
CFOSAT,2018-083A,2026-06-16T07:14:47.241888,15.16370043,.00024496,97.3602,171.8588,91.3766,268.7748,0,U,43662,999,42230,.1560088E-3,.2963E-4,0
TEN-KOH,2018-084G,2026-06-16T06:11:47.185728,15.02940691,.0011482,98.0772,359.5828,116.8447,243.3952,0,U,43677,999,41602,.1346896E-3,.1745E-4,0
DIWATA-2B,2018-084H,2026-06-16T07:16:13.473408,15.00447809,.0012428,98.1175,3.4727,172.9474,187.1925,0,U,43678,999,41608,.15583337E-3,.1897E-4,0
STARS-AO,2018-084J,2026-06-16T06:46:10.728768,15.17044226,.0002831,98.0497,21.1977,139.2327,220.9116,0,U,43679,999,41733,.26433443E-3,.5155E-4,0
AUTCUBE 2,2018-084K,2026-06-16T07:15:54.219168,15.10087288,.00101061,98.0709,13.4305,52.4446,307.7698,0,U,43681,999,41679,.18868662E-3,.3005E-4,0
METOP-C,2018-087A,2026-06-16T05:21:41.612256,14.21511898,.00017288,98.6645,226.8446,130.8288,229.3040,0,U,43689,999,39469,.59575852E-4,.87E-6,0
ES'HAIL 2,2018-090A,2026-06-16T02:52:15.491136,1.00270088,.00015936,0.0173,5.4784,118.9306,208.8329,0,U,43700,999,2766,0,.144E-5,0
MOHAMMED VI-B,2018-095A,2026-06-16T07:06:35.669952,14.77116556,.00012775,97.9562,239.6335,97.0484,263.0872,0,U,43717,999,40805,.88074322E-4,.572E-5,0
HYSIS,2018-096A,2026-06-16T07:57:40.016160,14.78693016,.00019128,97.9845,234.0866,106.7987,253.3434,0,U,43719,999,40729,.7183849E-4,.475E-5,0
COSMOS 2530 (RODNIK-S 16),2018-097A,2026-06-16T05:59:40.586784,12.42881045,.00202431,82.5144,222.8622,41.5953,318.6663,0,U,43751,999,34217,.14358394E-3,.3E-6,0
