ASNARO-2                
1 43152U 18007A   26167.26586250  .00005486  00000+0  24058-3 0  9991
2 43152  97.3966 174.2074 0001958  90.9926 269.1535 15.22380680467272
JILIN-1 07              
1 43159U 18008E   26167.31055415  .00007207  00000+0  21620-3 0  9994
2 43159  97.1764 187.2625 0009930  67.8505 292.3792 15.34710233464862
JILIN-1 08              
1 43160U 18008F   26167.31020943  .00005189  00000+0  16144-3 0  9996
2 43160  97.1797 186.5795 0008037  82.4036 277.8120 15.33705199464811
S-NET D                 
1 43186U 18014G   26167.27431769  .00004534  00000+0  23493-3 0  9996
2 43186  97.5367  72.0710 0009029  33.3736 326.8064 15.16666614458629
S-NET B                 
1 43187U 18014H   26167.28575302  .00004536  00000+0  23520-3 0  9993
2 43187  97.5373  72.0691 0009526  28.1461 332.0285 15.16636172458624
S-NET A                 
1 43188U 18014J   26167.27320021  .00004490  00000+0  23258-3 0  9996
2 43188  97.5383  72.2651 0009447  28.8165 331.3588 15.16674530458622
S-NET C                 
1 43189U 18014K   26167.28962437  .00004493  00000+0  23296-3 0  9996
2 43189  97.5399  72.3558 0010559  20.6348 339.5309 15.16628083457178
PAZ                     
1 43215U 18020A   26167.31659160  .00001641  00000+0  81326-4 0  9994
2 43215  97.4453 174.7148 0001665  85.6382 274.5043 15.19150540460872
GOES 17                 
1 43226U 18022A   26167.25417479 -.00000183  00000+0  00000+0 0  9992
2 43226   0.9353  85.7290 0000418  33.7087 147.0847  1.00269809 30415
LKW-4                   
1 43236U 18025A   26166.99040875  .00032989  00000+0  37602-3 0  9998
2 43236  97.6336 337.7696 0001829 296.4642  63.6428 15.62187036459846
ZHUHAI-1 OVS-02         
1 43440U 18040B   26167.31289591  .00006032  00000+0  24424-3 0  9997
2 43440  97.0381 184.5944 0001666 241.3318 118.7753 15.25015782452583
ZHUHAI-1 OHS-02         
1 43441U 18040C   26167.29847277  .00006552  00000+0  25821-3 0  9995
2 43441  97.0365 191.5195 0007967 223.5440 136.5171 15.25870894114142
GAOFEN-6                
1 43484U 18048A   26166.85139237  .00000304  00000+0  50615-4 0  9990
2 43484  97.8709 229.6314 0011693 171.3993 188.7420 14.76597001433195
LUOJIA-1 01             
1 43485U 18048B   26167.29962606  .00001708  00000+0  19525-3 0  9997
2 43485  97.8109 245.5010 0010241 120.3013 239.9218 14.87281468434087
PAKTES 1A               
1 43529U 18056A   26167.33722102  .00000910  00000+0  79937-4 0  9993
2 43529  98.1301 323.7875 0022152 108.7780 251.5847 14.99102891431795
PRSS-1                  
1 43530U 18056B   26167.24460797  .00000488  00000+0  68024-4 0  9999
2 43530  97.7825 235.1403 0001659  74.7663 285.3733 14.81987478428290
HAIYANG-1C              
1 43609U 18068A   26167.33806656 -.00000116  00000+0 -25976-4 0  9996
2 43609  98.5196 239.6580 0012099  96.5122 263.7440 14.34178010406961
SSTL S1-4               
1 43618U 18071A   26167.28575082  .00000033  00000+0  77604-5 0  9992
2 43618  97.5038  38.9389 0001366  98.1217 262.0160 14.96179812422801
HAIYANG-2B              
1 43655U 18081A   26167.29254094 -.00000022  00000+0  21134-4 0  9997
2 43655  99.3277 176.0623 0000461   4.4999 355.6157 13.79306773384804
CFOSAT                  
1 43662U 18083A   26167.30193567  .00002963  00000+0  15601-3 0  9992
2 43662  97.3602 171.8588 0002449  91.3766 268.7748 15.16370043422302
TEN-KOH                 
1 43677U 18084G   26167.25818502  .00001745  00000+0  13469-3 0  9993
2 43677  98.0772 359.5828 0011482 116.8447 243.3952 15.02940691416027
DIWATA-2B               
1 43678U 18084H   26167.30293372  .00001897  00000+0  15583-3 0  9999
2 43678  98.1175   3.4727 0012428 172.9474 187.1925 15.00447809416085
STARS-AO                
1 43679U 18084J   26167.28206862  .00005155  00000+0  26433-3 0  9992
2 43679  98.0497  21.1977 0002831 139.2327 220.9116 15.17044226417337
AUTCUBE 2               
1 43681U 18084K   26167.30271087  .00003005  00000+0  18869-3 0  9995
2 43681  98.0709  13.4305 0010106  52.4446 307.7698 15.10087288416793
METOP-C                 
1 43689U 18087A   26167.22339829  .00000087  00000+0  59576-4 0  9994
2 43689  98.6645 226.8446 0001728 130.8288 229.3040 14.21511898394691
ES'HAIL 2               
1 43700U 18090A   26167.11962374  .00000144  00000+0  00000+0 0  9994
2 43700   0.0173   5.4784 0001593 118.9306 208.8329  1.00270088 27660
MOHAMMED VI-B           
1 43717U 18095A   26167.29624618  .00000572  00000+0  88074-4 0  9999
2 43717  97.9562 239.6335 0001277  97.0484 263.0872 14.77116556408050
HYSIS                   
1 43719U 18096A   26167.33171315  .00000475  00000+0  71838-4 0  9990
2 43719  97.9845 234.0866 0001912 106.7987 253.3434 14.78693016407299
COSMOS 2530 (RODNIK-S *)
1 43751U 18097A   26167.24977531  .00000030  00000+0  14358-3 0  9991
2 43751  82.5144 222.8622 0020243  41.5953 318.6663 12.42881045342173
